1 53057U 22077Q   24340.05064754  .00002219  00000-0  17733-3 0  9990
2 53057  97.6564 158.4553 0002253  88.7139 271.4343 15.01250376132536
1 53057U 22077Q   24339.78402348 -.00009079  00000-0 -70231-3 0  9998
2 53057  97.6567 158.1925 0002240  92.7582 267.3898 15.01306747131916
1 53057U 22077Q   24339.78402348 -.00009079  00000-0 -70231-3 0  9998
2 53057  97.6567 158.1925 0002240  92.7582 267.3898 15.01306747132490
1 53057U 22077Q   24339.45077258 -.00001492  00000-0 -11154-3 0  9990
2 53057  97.6567 157.8640 0002224  85.6477 274.5001 15.01269007131869
1 53057U 22077Q   24338.98420914 -.00001417  00000-0 -10574-3 0  9990
2 53057  97.6566 157.4040 0002111  87.7647 272.3819 15.01264538132379
1 53057U 22077Q   24338.51764771 -.00000346  00000-0 -22327-4 0  9991
2 53057  97.6570 156.9438 0002168  86.8099 273.3373 15.01249916131729
1 53057U 22077Q   24338.45099557 -.00000426  00000-0 -28593-4 0  9997
2 53057  97.6565 156.8780 0002162  87.0183 273.1289 15.01249325132294
1 53057U 22077Q   24337.78444903  .00002323  00000-0  18531-3 0  9997
2 53057  97.6566 156.2206 0001990  81.4931 278.6519 15.01272368131613
1 53057U 22077Q   24337.78444903  .00002323  00000-0  18531-3 0  9997
2 53057  97.6566 156.2206 0001990  81.4931 278.6519 15.01272368132197
1 53057U 22077Q   24337.45118579  .00002668  00000-0  21217-3 0  9995
2 53057  97.6544 155.8920 0001982  84.7197 275.4254 15.01277772131567
1 53057U 22077Q   24337.45118579  .00002668  00000-0  21217-3 0  9995
2 53057  97.6544 155.8920 0001982  84.7197 275.4254 15.01277772132142
1 53057U 22077Q   24336.78468356  .00001095  00000-0  89873-4 0  9997
2 53057  97.6566 155.2352 0002119  84.3162 275.8304 15.01254239131467
1 53057U 22077Q   24336.45142119  .00001755  00000-0  14126-3 0  9998
2 53057  97.6570 154.9069 0002176  85.0787 275.0685 15.01249789131410
1 53057U 22077Q   24336.45142119  .00001755  00000-0  14126-3 0  9998
2 53057  97.6570 154.9069 0002176  85.0787 275.0685 15.01249789131993
1 53057U 22077Q   24335.45162653  .00001843  00000-0  14808-3 0  9997
2 53057  97.6556 153.9214 0002017  86.0226 274.1229 15.01253875131266
1 53057U 22077Q   24335.45162653  .00001843  00000-0  14808-3 0  9997
2 53057  97.6556 153.9214 0002017  86.0226 274.1229 15.01253875131840
1 53057U 22077Q   24334.45185116 -.00001803  00000-0 -13578-3 0  9996
2 53057  97.6544 152.9350 0003156  58.5352 301.6181 15.01253852131114
1 53057U 22077Q   24334.45185116 -.00001803  00000-0 -13578-3 0  9996
2 53057  97.6544 152.9350 0003156  58.5352 301.6181 15.01253852131697
1 53057U 22077Q   24333.45205305 -.00000793  00000-0 -57152-4 0  9992
2 53057  97.6557 151.9494 0002024  80.0790 280.0662 15.01259589130964
1 53057U 22077Q   24333.45205305 -.00000793  00000-0 -57152-4 0  9992
2 53057  97.6557 151.9494 0002024  80.0790 280.0662 15.01259589131549
1 53057U 22077Q   24332.25231199  .00001439  00000-0  11659-3 0  9996
2 53057  97.6567 150.7661 0002089  96.5009 263.6453 15.01268492130782
1 53057U 22077Q   24332.25231199  .00001439  00000-0  11659-3 0  9996
2 53057  97.6567 150.7661 0002089  96.5009 263.6453 15.01268492131367
1 53057U 22077Q   24331.05257733  .00001199  00000-0  97924-4 0  9998
2 53057  97.6559 149.5835 0001998  69.4645 290.6793 15.01262170130600
1 53057U 22077Q   24331.05257733  .00001199  00000-0  97924-4 0  9998
2 53057  97.6559 149.5835 0001998  69.4645 290.6793 15.01262170131184
1 53057U 22077Q   24330.51934661 -.00007437  00000-0 -57437-3 0  9997
2 53057  97.6562 149.0570 0002188  78.2286 281.9184 15.01304440130521
1 53057U 22077Q   24330.51934661 -.00007437  00000-0 -57437-3 0  9997
2 53057  97.6562 149.0570 0002188  78.2286 281.9184 15.01304440131106
1 53057U 22077Q   24330.45270560  .00000709  00000-0  59757-4 0  9992
2 53057  97.6559 148.9912 0001961  81.2252 278.9194 15.01264366130518
1 53057U 22077Q   24329.45292443 -.00000404  00000-0 -26852-4 0  9998
2 53057  97.6559 148.0058 0002084  85.0405 275.1057 15.01262970130368
1 53057U 22077Q   24329.45292443 -.00000404  00000-0 -26852-4 0  9998
2 53057  97.6559 148.0058 0002084  85.0405 275.1057 15.01262970130942
1 53057U 22077Q   24328.45313652  .00000728  00000-0  61227-4 0  9995
2 53057  97.6569 147.0209 0001720  75.9670 284.1746 15.01266072130210
1 53057U 22077Q   24328.45313652  .00000728  00000-0  61227-4 0  9995
2 53057  97.6569 147.0209 0001720  75.9670 284.1746 15.01266072130793
1 53057U 22077Q   24327.52000011  .00003008  00000-0  23865-3 0  9993
2 53057  97.6561 146.1019 0002056  81.5093 278.6364 15.01264062130071
1 53057U 22077Q   24327.45334859  .00002976  00000-0  23616-3 0  9992
2 53057  97.6562 146.0357 0001992  82.9585 277.1865 15.01262736130060
1 53057U 22077Q   24327.45334859  .00002976  00000-0  23616-3 0  9992
2 53057  97.6562 146.0357 0001992  82.9585 277.1865 15.01262736130644
1 53057U 22077Q   24326.45356961  .00000167  00000-0  17580-4 0  9993
2 53057  97.6569 145.0517 0001959  81.5700 278.5747 15.01259264130494
1 53057U 22077Q   24326.45356961  .00000167  00000-0  17580-4 0  9993
2 53057  97.6569 145.0517 0001959  81.5700 278.5747 15.01259264129919
1 53057U 22077Q   24325.45378882 -.00001150  00000-0 -84948-4 0  9995
2 53057  97.6573 144.0646 0001744  85.5235 274.6188 15.01249260129769
1 53057U 22077Q   24325.45378882 -.00001150  00000-0 -84948-4 0  9995
2 53057  97.6573 144.0646 0001744  85.5235 274.6188 15.01249260130345
1 53057U 22077Q   24324.92055716  .00000306  00000-0  28455-4 0  9995
2 53057  97.6575 143.5389 0001645  83.7964 276.3447 15.01261100130269
1 53057U 22077Q   24324.92055716  .00000306  00000-0  28455-4 0  9995
2 53057  97.6575 143.5389 0001645  83.7964 276.3447 15.01261100129683
1 53057U 22077Q   24324.45398684  .00001057  00000-0  86857-4 0  9991
2 53057  97.6572 143.0787 0001691  85.2112 274.9305 15.01264893130197
1 53057U 22077Q   24324.25403040  .00001069  00000-0  87763-4 0  9992
2 53057  97.6572 142.8815 0001694  85.4208 274.7209 15.01264544129582
1 53057U 22077Q   24323.78746431  .00001131  00000-0  92615-4 0  9995
2 53057  97.6572 142.4215 0001680  83.3704 276.7711 15.01264859129517
1 53057U 22077Q   24323.32090012  .00001212  00000-0  98921-4 0  9998
2 53057  97.6570 141.9616 0001686  82.7888 277.3528 15.01261846129444
1 53057U 22077Q   24323.32090012  .00001212  00000-0  98921-4 0  9998
2 53057  97.6570 141.9616 0001686  82.7888 277.3528 15.01261846130020
1 53057U 22077Q   24322.45442079  .00000501  00000-0  43607-4 0  9996
2 53057  97.6580 141.1072 0001570  86.0789 274.0615 15.01262578129312
1 53057U 22077Q   24322.05450621  .00000618  00000-0  52667-4 0  9999
2 53057  97.6581 140.7129 0001547  86.3508 273.7893 15.01263042129835
1 53057U 22077Q   24321.25468005  .00000756  00000-0  63423-4 0  9990
2 53057  97.6579 139.9243 0001482  86.2311 273.9083 15.01258460129132
1 53057U 22077Q   24320.98806874  .00001035  00000-0  85169-4 0  9991
2 53057  97.6580 139.6613 0001462  86.2005 273.9386 15.01260120129671
1 53057U 22077Q   24320.78810973  .00000896  00000-0  74311-4 0  9995
2 53057  97.6581 139.4641 0001469  86.2457 273.8935 15.01263850129064
1 53057U 22077Q   24320.45484714  .00000997  00000-0  82231-4 0  9991
2 53057  97.6578 139.1355 0001459  87.6461 272.4931 15.01265673129019
1 53057U 22077Q   24320.45484714  .00000997  00000-0  82231-4 0  9991
2 53057  97.6578 139.1355 0001459  87.6461 272.4931 15.01265673129592
1 53057U 22077Q   24319.45506735  .00000670  00000-0  56768-4 0  9991
2 53057  97.6571 138.1495 0001433  86.5221 273.6167 15.01260309128867
1 53057U 22077Q   24319.05515227  .00001001  00000-0  82539-4 0  9997
2 53057  97.6569 137.7552 0001393  86.6553 273.4831 15.01259859129389
1 53057U 22077Q   24318.45527794  .00001137  00000-0  93079-4 0  9993
2 53057  97.6566 137.1639 0001523  95.8314 264.3084 15.01265745128714
1 53057U 22077Q   24317.92205738 -.00003316  00000-0 -25355-3 0  9999
2 53057  97.6558 136.6379 0001377  92.3474 267.7908 15.01281363128633
1 53057U 22077Q   24317.45549631 -.00000498  00000-0 -34203-4 0  9991
2 53057  97.6568 136.1780 0001251  88.2670 271.8697 15.01269388128564
1 53057U 22077Q   24317.45549631 -.00000498  00000-0 -34203-4 0  9991
2 53057  97.6568 136.1780 0001251  88.2670 271.8697 15.01269388129149
1 53057U 22077Q   24316.78897152  .00001061  00000-0  87140-4 0  9993
2 53057  97.6565 135.5212 0001173  79.6693 280.4663 15.01272107129042
1 53057U 22077Q   24316.45571788  .00004416  00000-0  34831-3 0  9996
2 53057  97.6564 135.1928 0001188  82.8545 277.2814 15.01249694128416
1 53057U 22077Q   24316.45571788  .00004416  00000-0  34831-3 0  9996
2 53057  97.6564 135.1928 0001188  82.8545 277.2814 15.01249694128999
1 53057U 22077Q   24315.45592648  .00002112  00000-0  16897-3 0  9996
2 53057  97.6546 134.2061 0002091  90.1359 270.0104 15.01268073128261
1 53057U 22077Q   24314.78940343  .00002453  00000-0  19546-3 0  9992
2 53057  97.6571 133.5483 0001890  82.8121 277.3318 15.01265790128169
1 53057U 22077Q   24314.78940343  .00002453  00000-0  19546-3 0  9992
2 53057  97.6571 133.5483 0001890  82.8121 277.3318 15.01265790128743
1 53057U 22077Q   24314.45616591 -.00001819  00000-0 -13712-3 0  9997
2 53057  97.6569 133.2227 0001072  68.3066 291.8272 15.01235952128110
1 53057U 22077Q   24314.45616591 -.00001819  00000-0 -13712-3 0  9997
2 53057  97.6569 133.2227 0001072  68.3066 291.8272 15.01235952128693
1 53057U 22077Q   24313.78961109  .00001271  00000-0  10354-3 0  9999
2 53057  97.6573 132.5637 0001173  93.8991 266.2367 15.01262222128014
1 53057U 22077Q   24312.78982457  .00000900  00000-0  74611-4 0  9992
2 53057  97.6577 131.5780 0001047  95.2702 264.8641 15.01263391127861
1 53057U 22077Q   24312.78982457  .00000900  00000-0  74611-4 0  9992
2 53057  97.6577 131.5780 0001047  95.2702 264.8641 15.01263391128446
1 53057U 22077Q   24312.45656366  .00000735  00000-0  61828-4 0  9995
2 53057  97.6575 131.2494 0001011  95.2856 264.8483 15.01263041127810
1 53057U 22077Q   24311.79003905  .00001712  00000-0  13781-3 0  9996
2 53057  97.6576 130.5924 0000972  91.9175 268.2160 15.01264371127719
